QIANFAN-9               
1 60387U 24140J   25353.86869394  .00000078  00000+0  10140-3 0  9999
2 60387  88.9771 298.5991 0015952 170.4456 189.7001 13.50982794 68297
QIANFAN-10              
1 60388U 24140K   25353.79881447  .00000075  00000+0  96704-4 0  9993
2 60388  88.9781 297.9542 0015187 147.5978 212.6108 13.50983120 68410
QIANFAN-11              
1 60389U 24140L   25353.83591770  .00000067  00000+0  84392-4 0  9997
2 60389  88.9707 298.5323 0014024 169.3053 190.8399 13.50979392 68075
QIANFAN-12              
1 60390U 24140M   25353.70827615  .00000083  00000+0  10943-3 0  9993
2 60390  88.9750 298.5920 0012561 177.3551 182.7669 13.50980281 68185
QIANFAN-13              
1 60391U 24140N   25353.82759840  .00000066  00000+0  83377-4 0  9994
2 60391  88.9763 298.6804 0012307 179.6685 180.4476 13.50980796 68220
QIANFAN-14              
1 60392U 24140P   25353.77813549  .00000081  00000+0  10671-3 0  9999
2 60392  88.9741 298.5817 0015959 181.6141 178.4961 13.50980275 68224
QIANFAN-15              
1 60393U 24140Q   25353.86049164  .00000066  00000+0  83453-4 0  9996
2 60393  88.9765 298.5313 0012253 165.0327 195.1189 13.50979066 68222
QIANFAN-16              
1 60394U 24140R   25353.84823559  .00000072  00000+0  92255-4 0  9990
2 60394  88.9768 298.6529 0013800 184.5526 175.5502 13.50984314 68135
